*******************************************************************************
Ephemeris / WWW_USER Mon Mar 10 07:35:03 2025 Pasadena, USA      / Horizons    
*******************************************************************************
Target body name: Lemmon (C/2018 EF9)             {source: JPL#18}
Center body name: Earth (399)                     {source: DE441}
Center-site name: Mauna Kea
*******************************************************************************
Start time      : A.D. 2018-Oct-22 04:03:00.0000 UT      
Stop  time      : A.D. 2018-Oct-22 16:09:00.0000 UT      
Step-size       : 1 minutes
*******************************************************************************
Target pole/equ : undefined
Target radii    : undefined                                                    
Center geodetic : 204.5278, 19.8260847, 4.21024   {E-lon(deg),Lat(deg),Alt(km)}
Center cylindric: 204.5278, 6006.35451, 2151.0229 {E-lon(deg),Dxy(km),Dz(km)}
Center pole/equ : ITRF93                          {East-longitude positive}
Center radii    : 6378.137, 6378.137, 6356.752 km {Equator_a, b, pole_c}       
Target primary  : Sun
Vis. interferer : MOON (R_eq= 1737.400) km        {source: DE441}
Rel. light bend : Sun                             {source: DE441}
Rel. lght bnd GM: 1.3271E+11 km^3/s^2                                          
Small-body perts: Yes                             {source: SB441-N16}
Atmos refraction: NO (AIRLESS)
RA format       : HMS
Time format     : CAL 
Calendar mode   : Mixed Julian/Gregorian
RTS-only print  : NO       
EOP file        : eop.250307.p250603                                           
EOP coverage    : DATA-BASED 1962-JAN-20 TO 2025-MAR-07. PREDICTS-> 2025-JUN-02
Units conversion: 1 au= 149597870.700 km, c= 299792.458 km/s, 1 day= 86400.0 s 
Table cut-offs 1: Elevation (-90.0deg=NO ),Airmass (>38.000=NO), Daylight (YES)
Table cut-offs 2: Solar elongation (  0.0,180.0=NO ),Local Hour Angle( 0.0=NO )
Table cut-offs 3: RA/DEC angular rate (     0.0=NO )                           
*******************************************************************************
Initial IAU76/J2000 heliocentric ecliptic osculating elements (au, days, deg.):
  EPOCH=  2458226.5 ! 2018-Apr-18.0000000 (TDB)    RMSW= n.a.                  
   EC= .9975741722198472   QR= 1.55663257903246    TP= 2458261.6283815675      
   OM= 172.5780664128357   W= 72.61657512148747    IN= 84.69445280104227       
  Equivalent ICRF heliocentric cartesian coordinates (au, au/d):
   X=-1.091857230976521E+00  Y=-4.544188696153424E-01  Z= 1.120998862172552E+00
  VX= 1.630642470498751E-02 VY=-6.481787118028984E-03 VZ= 7.403953065693920E-03
Comet physical (GM= km^3/s^2; RAD= km):                                        
   GM= n.a.                RAD= n.a.                                           
   M1=  8.6      M2=  17.8     k1=  45.25  k2=  5.      PHCOF=  .030           
*******************************************************************************
 Date__(UT)__HR:MN     R.A._________(ICRF)_________DEC
******************************************************
$$SOE
 2018-Oct-22 08:13  m  20 55 09.560631 +24 34 22.87466
 2018-Oct-22 08:14  m  20 55 09.599130 +24 34 21.37703
 2018-Oct-22 08:15  m  20 55 09.637634 +24 34 19.87938
 2018-Oct-22 08:16  m  20 55 09.676142 +24 34 18.38174
 2018-Oct-22 08:17  m  20 55 09.714654 +24 34 16.88409
 2018-Oct-22 08:18  m  20 55 09.753170 +24 34 15.38643
 2018-Oct-22 08:19  m  20 55 09.791691 +24 34 13.88878
 2018-Oct-22 08:20  m  20 55 09.830216 +24 34 12.39111
 2018-Oct-22 08:21  m  20 55 09.868746 +24 34 10.89345
 2018-Oct-22 08:22  m  20 55 09.907280 +24 34 09.39578
 2018-Oct-22 08:23  m  20 55 09.945818 +24 34 07.89810
 2018-Oct-22 08:24  m  20 55 09.984361 +24 34 06.40043
 2018-Oct-22 08:25  m  20 55 10.022909 +24 34 04.90275
 2018-Oct-22 08:26  m  20 55 10.061461 +24 34 03.40506
 2018-Oct-22 08:27  m  20 55 10.100017 +24 34 01.90737
 2018-Oct-22 08:28  m  20 55 10.138578 +24 34 00.40968
 2018-Oct-22 08:29  m  20 55 10.177143 +24 33 58.91199
 2018-Oct-22 08:30  m  20 55 10.215713 +24 33 57.41429
 2018-Oct-22 08:31  m  20 55 10.254288 +24 33 55.91659
 2018-Oct-22 08:32  m  20 55 10.292867 +24 33 54.41889
 2018-Oct-22 08:33  m  20 55 10.331451 +24 33 52.92119
 2018-Oct-22 08:34  m  20 55 10.370039 +24 33 51.42348
 2018-Oct-22 08:35  m  20 55 10.408632 +24 33 49.92577
 2018-Oct-22 08:36  m  20 55 10.447230 +24 33 48.42806
 2018-Oct-22 08:37  m  20 55 10.485832 +24 33 46.93034
 2018-Oct-22 08:38  m  20 55 10.524439 +24 33 45.43263
 2018-Oct-22 08:39  m  20 55 10.563051 +24 33 43.93491
 2018-Oct-22 08:40  m  20 55 10.601667 +24 33 42.43719
 2018-Oct-22 08:41  m  20 55 10.640288 +24 33 40.93947
 2018-Oct-22 08:42  m  20 55 10.678914 +24 33 39.44174
 2018-Oct-22 08:43  m  20 55 10.717545 +24 33 37.94402
 2018-Oct-22 08:44  m  20 55 10.756180 +24 33 36.44629
 2018-Oct-22 08:45  m  20 55 10.794821 +24 33 34.94856
 2018-Oct-22 08:46  m  20 55 10.833466 +24 33 33.45084
 2018-Oct-22 08:47  m  20 55 10.872115 +24 33 31.95311
 2018-Oct-22 08:48  m  20 55 10.910770 +24 33 30.45538
 2018-Oct-22 08:49  m  20 55 10.949430 +24 33 28.95764
 2018-Oct-22 08:50  m  20 55 10.988094 +24 33 27.45991
 2018-Oct-22 08:51  m  20 55 11.026763 +24 33 25.96218
 2018-Oct-22 08:52  m  20 55 11.065438 +24 33 24.46445
 2018-Oct-22 08:53  m  20 55 11.104117 +24 33 22.96671
 2018-Oct-22 08:54  m  20 55 11.142801 +24 33 21.46898
 2018-Oct-22 08:55  m  20 55 11.181490 +24 33 19.97124
 2018-Oct-22 08:56  m  20 55 11.220184 +24 33 18.47351
 2018-Oct-22 08:57  m  20 55 11.258883 +24 33 16.97578
 2018-Oct-22 08:58  m  20 55 11.297587 +24 33 15.47804
 2018-Oct-22 08:59  m  20 55 11.336296 +24 33 13.98031
 2018-Oct-22 09:00  m  20 55 11.375010 +24 33 12.48258
 2018-Oct-22 09:01  m  20 55 11.413728 +24 33 10.98485
 2018-Oct-22 09:02  m  20 55 11.452452 +24 33 09.48711
 2018-Oct-22 09:03  m  20 55 11.491182 +24 33 07.98938
 2018-Oct-22 09:04  m  20 55 11.529916 +24 33 06.49166
 2018-Oct-22 09:05  m  20 55 11.568655 +24 33 04.99393
 2018-Oct-22 09:06  m  20 55 11.607399 +24 33 03.49620
 2018-Oct-22 09:07  m  20 55 11.646149 +24 33 01.99847
 2018-Oct-22 09:08  m  20 55 11.684903 +24 33 00.50075
 2018-Oct-22 09:09  m  20 55 11.723663 +24 32 59.00303
 2018-Oct-22 09:10  m  20 55 11.762428 +24 32 57.50531
 2018-Oct-22 09:11  m  20 55 11.801198 +24 32 56.00759
 2018-Oct-22 09:12  m  20 55 11.839973 +24 32 54.50987
 2018-Oct-22 09:13  m  20 55 11.878753 +24 32 53.01216
 2018-Oct-22 09:14  m  20 55 11.917539 +24 32 51.51444
 2018-Oct-22 09:15  m  20 55 11.956329 +24 32 50.01673
 2018-Oct-22 09:16  m  20 55 11.995125 +24 32 48.51902
 2018-Oct-22 09:17  m  20 55 12.033927 +24 32 47.02132
 2018-Oct-22 09:18  m  20 55 12.072733 +24 32 45.52362
 2018-Oct-22 09:19  m  20 55 12.111545 +24 32 44.02592
 2018-Oct-22 09:20  m  20 55 12.150362 +24 32 42.52822
 2018-Oct-22 09:21  m  20 55 12.189184 +24 32 41.03053
 2018-Oct-22 09:22  m  20 55 12.228012 +24 32 39.53283
 2018-Oct-22 09:23  m  20 55 12.266845 +24 32 38.03515
 2018-Oct-22 09:24  m  20 55 12.305683 +24 32 36.53746
 2018-Oct-22 09:25  m  20 55 12.344527 +24 32 35.03978
 2018-Oct-22 09:26  m  20 55 12.383375 +24 32 33.54211
 2018-Oct-22 09:27  m  20 55 12.422230 +24 32 32.04443
 2018-Oct-22 09:28  m  20 55 12.461089 +24 32 30.54677
 2018-Oct-22 09:29  m  20 55 12.499954 +24 32 29.04910
 2018-Oct-22 09:30  m  20 55 12.538825 +24 32 27.55144
 2018-Oct-22 09:31  m  20 55 12.577701 +24 32 26.05379
 2018-Oct-22 09:32  m  20 55 12.616582 +24 32 24.55613
 2018-Oct-22 09:33  m  20 55 12.655469 +24 32 23.05849
 2018-Oct-22 09:34  m  20 55 12.694361 +24 32 21.56085
 2018-Oct-22 09:35  m  20 55 12.733258 +24 32 20.06321
 2018-Oct-22 09:36  m  20 55 12.772161 +24 32 18.56558
 2018-Oct-22 09:37  m  20 55 12.811070 +24 32 17.06795
 2018-Oct-22 09:38  m  20 55 12.849984 +24 32 15.57033
 2018-Oct-22 09:39  m  20 55 12.888903 +24 32 14.07271
 2018-Oct-22 09:40  m  20 55 12.927828 +24 32 12.57510
 2018-Oct-22 09:41  m  20 55 12.966759 +24 32 11.07750
 2018-Oct-22 09:42  m  20 55 13.005694 +24 32 09.57990
 2018-Oct-22 09:43  m  20 55 13.044636 +24 32 08.08230
 2018-Oct-22 09:44  m  20 55 13.083583 +24 32 06.58472
 2018-Oct-22 09:45  m  20 55 13.122536 +24 32 05.08714
 2018-Oct-22 09:46  m  20 55 13.161494 +24 32 03.58956
 2018-Oct-22 09:47  m  20 55 13.200457 +24 32 02.09199
 2018-Oct-22 09:48  m  20 55 13.239427 +24 32 00.59443
 2018-Oct-22 09:49  m  20 55 13.278402 +24 31 59.09688
 2018-Oct-22 09:50  m  20 55 13.317382 +24 31 57.59933
 2018-Oct-22 09:51  m  20 55 13.356368 +24 31 56.10179
 2018-Oct-22 09:52  m  20 55 13.395360 +24 31 54.60426
 2018-Oct-22 09:53  m  20 55 13.434357 +24 31 53.10673
 2018-Oct-22 09:54  m  20 55 13.473360 +24 31 51.60921
 2018-Oct-22 09:55  m  20 55 13.512369 +24 31 50.11170
 2018-Oct-22 09:56  m  20 55 13.551383 +24 31 48.61420
 2018-Oct-22 09:57  m  20 55 13.590403 +24 31 47.11670
 2018-Oct-22 09:58  m  20 55 13.629428 +24 31 45.61921
 2018-Oct-22 09:59  m  20 55 13.668459 +24 31 44.12173
 2018-Oct-22 10:00  m  20 55 13.707496 +24 31 42.62426
 2018-Oct-22 10:01  m  20 55 13.746539 +24 31 41.12680
 2018-Oct-22 10:02  m  20 55 13.785587 +24 31 39.62935
 2018-Oct-22 10:03  m  20 55 13.824641 +24 31 38.13190
 2018-Oct-22 10:04  m  20 55 13.863701 +24 31 36.63446
 2018-Oct-22 10:05  m  20 55 13.902766 +24 31 35.13703
 2018-Oct-22 10:06  m  20 55 13.941837 +24 31 33.63962
 2018-Oct-22 10:07  m  20 55 13.980914 +24 31 32.14221
 2018-Oct-22 10:08  m  20 55 14.019997 +24 31 30.64480
 2018-Oct-22 10:09  m  20 55 14.059085 +24 31 29.14741
 2018-Oct-22 10:10  m  20 55 14.098179 +24 31 27.65003
 2018-Oct-22 10:11  m  20 55 14.137279 +24 31 26.15266
 2018-Oct-22 10:12  m  20 55 14.176385 +24 31 24.65530
 2018-Oct-22 10:13  m  20 55 14.215496 +24 31 23.15795
 2018-Oct-22 10:14  m  20 55 14.254614 +24 31 21.66061
 2018-Oct-22 10:15  m  20 55 14.293737 +24 31 20.16327
 2018-Oct-22 10:16  m  20 55 14.332865 +24 31 18.66595
 2018-Oct-22 10:17  m  20 55 14.372000 +24 31 17.16864
